STARLINK-32172          
1 61518U 24183K   26068.49396085  .00000877  00000+0  41759-4 0  9996
2 61518  53.1601 143.2666 0001125  87.2122 272.9008 15.30188090 79625
TEVEL2-7                
1 63238U 25052AE  26068.66113295  .00019244  00000+0  69668-3 0  9998
2 63238  97.4054 324.3041 0008105 124.6830 235.5175 15.28414096 54803
